{
  "norad_id": 62829,
  "name": "STARLINK-11548 [DTC]",
  "history": [
    {
      "epoch": "2026-03-28T15:14:41.738784Z",
      "apogee_km": 357.800200029129,
      "perigee_km": 354.8141474824861,
      "latitude_deg": -4.7442594275280804e-05,
      "longitude_deg": 136.76761507304803,
      "height_km": 356.21432044475176,
      "semi_major_axis_km": 6734.444173755807,
      "eccentricity": 0.0002217,
      "inclination_deg": 43.0052,
      "raan_deg": 191.4944,
      "arg_perigee_deg": 264.8699,
      "mean_anomaly_deg": 95.1915,
      "mean_motion_rev_day": 15.70905739
    },
    {
      "epoch": "2026-03-30T03:52:08.237280Z",
      "apogee_km": 357.1293107140418,
      "perigee_km": 355.0282353928478,
      "latitude_deg": -1.1761164250622792e-05,
      "longitude_deg": -63.29505209310044,
      "height_km": 356.6152013443949,
      "semi_major_axis_km": 6734.2157730534445,
      "eccentricity": 0.000156,
      "inclination_deg": 43.0001,
      "raan_deg": 182.2962,
      "arg_perigee_deg": 223.314,
      "mean_anomaly_deg": 136.7605,
      "mean_motion_rev_day": 15.70985659
    },
    {
      "epoch": "2026-03-30T06:55:15.308832Z",
      "apogee_km": 357.0482891034899,
      "perigee_km": 355.54193132907676,
      "latitude_deg": 2.1499733872929005e-05,
      "longitude_deg": -109.96622099967128,
      "height_km": 355.660352798539,
      "semi_major_axis_km": 6734.432110216283,
      "eccentricity": 0.00011184,
      "inclination_deg": 43.0003,
      "raan_deg": 181.5298,
      "arg_perigee_deg": 302.6996,
      "mean_anomaly_deg": 57.3764,
      "mean_motion_rev_day": 15.7090996
    },
    {
      "epoch": "2026-03-30T14:33:03.587328Z",
      "apogee_km": 357.3028449019048,
      "perigee_km": 355.5634401254956,
      "latitude_deg": 2.520531034947948e-05,
      "longitude_deg": 133.35416677651114,
      "height_km": 356.3060721447926,
      "semi_major_axis_km": 6734.5701425136995,
      "eccentricity": 0.00012914,
      "inclination_deg": 43.0004,
      "raan_deg": 179.6147,
      "arg_perigee_deg": 263.3606,
      "mean_anomaly_deg": 96.7115,
      "mean_motion_rev_day": 15.70861664
    },
    {
      "epoch": "2026-03-31T05:48:39.146400Z",
      "apogee_km": 356.492149206606,
      "perigee_km": 355.66653428310747,
      "latitude_deg": 1.1966704151262736e-06,
      "longitude_deg": -100.00452173055095,
      "height_km": 356.1424372833027,
      "semi_major_axis_km": 6734.216341744856,
      "eccentricity": 6.13e-05,
      "inclination_deg": 42.9988,
      "raan_deg": 175.7809,
      "arg_perigee_deg": 225.0374,
      "mean_anomaly_deg": 135.0444,
      "mean_motion_rev_day": 15.7098546
    },
    {
      "epoch": "2026-04-01T12:19:51.237408Z",
      "apogee_km": 356.89830542756954,
      "perigee_km": 355.60934302381247,
      "latitude_deg": 2.385376807896145e-05,
      "longitude_deg": 153.2771120273889,
      "height_km": 356.52122740711485,
      "semi_major_axis_km": 6734.390824225691,
      "eccentricity": 9.57e-05,
      "inclination_deg": 42.9996,
      "raan_deg": 168.1163,
      "arg_perigee_deg": 219.7112,
      "mean_anomaly_deg": 140.3686,
      "mean_motion_rev_day": 15.70924406
    },
    {
      "epoch": "2026-04-02T12:44:48.466464Z",
      "apogee_km": 357.51235207884656,
      "perigee_km": 354.9518102668035,
      "latitude_deg": 4.4619604451423356e-05,
      "longitude_deg": 139.9035554843904,
      "height_km": 355.9091794540285,
      "semi_major_axis_km": 6734.369081172825,
      "eccentricity": 0.00019011,
      "inclination_deg": 42.9992,
      "raan_deg": 161.9839,
      "arg_perigee_deg": 274.2848,
      "mean_anomaly_deg": 85.7803,
      "mean_motion_rev_day": 15.70932014
    },
    {
      "epoch": "2026-04-03T13:09:44.364096Z",
      "apogee_km": 357.59822143013935,
      "perigee_km": 355.52393442213815,
      "latitude_deg": -2.0961594743503925e-05,
      "longitude_deg": 126.53556896786182,
      "height_km": 356.381497309469,
      "semi_major_axis_km": 6734.6980779261385,
      "eccentricity": 0.000154,
      "inclination_deg": 42.9999,
      "raan_deg": 155.8516,
      "arg_perigee_deg": 267.3544,
      "mean_anomaly_deg": 92.7147,
      "mean_motion_rev_day": 15.70816903
    },
    {
      "epoch": "2026-04-04T12:03:09.641088Z",
      "apogee_km": 357.3319619015865,
      "perigee_km": 354.98963844073023,
      "latitude_deg": -9.362041327858378e-06,
      "longitude_deg": 136.4914865615264,
      "height_km": 355.5881823184872,
      "semi_major_axis_km": 6734.297800171158,
      "eccentricity": 0.00017391,
      "inclination_deg": 43.0,
      "raan_deg": 150.1029,
      "arg_perigee_deg": 287.1486,
      "mean_anomaly_deg": 72.9191,
      "mean_motion_rev_day": 15.70956956
    },
    {
      "epoch": "2026-04-05T12:28:07.309056Z",
      "apogee_km": 357.8244450428492,
      "perigee_km": 355.1691136363306,
      "latitude_deg": -3.975464547837177e-06,
      "longitude_deg": 123.11727743705653,
      "height_km": 356.1231615043183,
      "semi_major_axis_km": 6734.63377933959,
      "eccentricity": 0.00019714,
      "inclination_deg": 43.0013,
      "raan_deg": 143.9717,
      "arg_perigee_deg": 276.3429,
      "mean_anomaly_deg": 83.7214,
      "mean_motion_rev_day": 15.70839399
    },
    {
      "epoch": "2026-04-06T03:43:42.546720Z",
      "apogee_km": 356.9127299118463,
      "perigee_km": 355.1424527240806,
      "latitude_deg": 2.8345305898386185e-05,
      "longitude_deg": -110.23961017696158,
      "height_km": 356.2245205330785,
      "semi_major_axis_km": 6734.164591317963,
      "eccentricity": 0.00013144,
      "inclination_deg": 42.9987,
      "raan_deg": 140.1383,
      "arg_perigee_deg": 241.3106,
      "mean_anomaly_deg": 118.763,
      "mean_motion_rev_day": 15.71003569
    },
    {
      "epoch": "2026-04-07T02:37:06.605472Z",
      "apogee_km": 356.23915928354927,
      "perigee_km": 355.95079947019167,
      "latitude_deg": 5.128037651593234e-05,
      "longitude_deg": -100.27999249717931,
      "height_km": 355.76989810708443,
      "semi_major_axis_km": 6734.23197937687,
      "eccentricity": 2.141e-05,
      "inclination_deg": 42.9964,
      "raan_deg": 134.3882,
      "arg_perigee_deg": 311.735,
      "mean_anomaly_deg": 48.35,
      "mean_motion_rev_day": 15.70979988
    },
    {
      "epoch": "2026-04-07T19:24:16.644672Z",
      "apogee_km": 357.206865197315,
      "perigee_km": 355.2485119458788,
      "latitude_deg": 6.511732339503359e-06,
      "longitude_deg": 3.0242461714989544,
      "height_km": 355.3997713372029,
      "semi_major_axis_km": 6734.364688571596,
      "eccentricity": 0.0001454,
      "inclination_deg": 43.0015,
      "raan_deg": 130.1737,
      "arg_perigee_deg": 307.8189,
      "mean_anomaly_deg": 52.2547,
      "mean_motion_rev_day": 15.70933551
    },
    {
      "epoch": "2026-04-08T10:39:51.889248Z",
      "apogee_km": 358.1618386640812,
      "perigee_km": 354.2179474624272,
      "latitude_deg": 1.8520806631236227e-05,
      "longitude_deg": 129.67000733021922,
      "height_km": 356.0823295409085,
      "semi_major_axis_km": 6734.326893063254,
      "eccentricity": 0.00029282,
      "inclination_deg": 43.0011,
      "raan_deg": 126.343,
      "arg_perigee_deg": 266.5466,
      "mean_anomaly_deg": 93.5067,
      "mean_motion_rev_day": 15.70946776
    },
    {
      "epoch": "2026-04-09T01:55:27.615936Z",
      "apogee_km": 356.4556896412314,
      "perigee_km": 355.8199740971022,
      "latitude_deg": 8.379176940528461e-06,
      "longitude_deg": -103.69016944450644,
      "height_km": 356.1137305623961,
      "semi_major_axis_km": 6734.2748318691665,
      "eccentricity": 4.72e-05,
      "inclination_deg": 42.9965,
      "raan_deg": 122.5084,
      "arg_perigee_deg": 130.2947,
      "mean_anomaly_deg": 229.7962,
      "mean_motion_rev_day": 15.70964993
    },
    {
      "epoch": "2026-04-10T03:51:58.582080Z",
      "apogee_km": 357.4278869597774,
      "perigee_km": 355.3039594278607,
      "latitude_deg": 3.6535501403548823e-06,
      "longitude_deg": -140.3990005595459,
      "height_km": 356.2503761485128,
      "semi_major_axis_km": 6734.502923193819,
      "eccentricity": 0.00015769,
      "inclination_deg": 43.0009,
      "raan_deg": 115.994,
      "arg_perigee_deg": 263.9576,
      "mean_anomaly_deg": 96.1112,
      "mean_motion_rev_day": 15.70885183
    },
    {
      "epoch": "2026-04-11T11:54:44.183808Z",
      "apogee_km": 357.20599981860505,
      "perigee_km": 355.6193399163858,
      "latitude_deg": -2.984136290316721e-05,
      "longitude_deg": 89.54597127489743,
      "height_km": 356.4810356552667,
      "semi_major_axis_km": 6734.549669867495,
      "eccentricity": 0.0001178,
      "inclination_deg": 43.0,
      "raan_deg": 107.9451,
      "arg_perigee_deg": 248.075,
      "mean_anomaly_deg": 111.9992,
      "mean_motion_rev_day": 15.70868827
    },
    {
      "epoch": "2026-04-13T06:38:24.645696Z",
      "apogee_km": 357.8877559602306,
      "perigee_km": 354.9592996603178,
      "latitude_deg": 2.196068595378764e-05,
      "longitude_deg": 156.14086143097705,
      "height_km": 356.0020823964045,
      "semi_major_axis_km": 6734.560527810274,
      "eccentricity": 0.00021742,
      "inclination_deg": 43.003,
      "raan_deg": 97.2133,
      "arg_perigee_deg": 277.6471,
      "mean_anomaly_deg": 82.415,
      "mean_motion_rev_day": 15.70865028
    },
    {
      "epoch": "2026-04-14T16:12:44.055360Z",
      "apogee_km": 356.6552028096903,
      "perigee_km": 355.00134093891756,
      "latitude_deg": -1.40907934941626e-05,
      "longitude_deg": 2.7497953952531895,
      "height_km": 355.08726621981367,
      "semi_major_axis_km": 6733.965271874304,
      "eccentricity": 0.0001228,
      "inclination_deg": 42.9996,
      "raan_deg": 88.7819,
      "arg_perigee_deg": 308.3504,
      "mean_anomaly_deg": 51.7253,
      "mean_motion_rev_day": 15.7107332
    }
  ]
}